     2.100          NAVIGATION                              RINEX VERSION / TYPE
fic2rin                                 02/25/2016 00:28:03 PGM / RUN BY / DATE
                                                            END OF HEADER
27 16  2 24 22  0  0.0  .659814104438D-04  .363797880709D-11  .000000000000D+00
     .850000000000D+02  .514375000000D+02  .458519099161D-08 -.171875627973D+00
     .254251062870D-05  .325213896576D-02  .426173210144D-05  .515362998962D+04
     .338400000000D+06  .279396772385D-07 -.158882458458D+01  .279396772385D-07
     .969992692272D+00  .300625000000D+03  .203910232103D+00 -.831677499849D-08
     .176793078427D-09  .100000000000D+01  .188500000000D+04  .000000000000D+00
     .340000000000D+01  .000000000000D+00  .139698386192D-08  .850000000000D+02
     .331206000000D+06  .400000000000D+01
28 16  2 24 22  0  0.0  .504744239151D-03  .261479726760D-11  .000000000000D+00
     .770000000000D+02  .413750000000D+02  .380444418466D-08  .535815494272D+00
     .222213566303D-05  .198939099209D-01  .117104500532D-04  .515362801170D+04
     .338400000000D+06 -.245869159698D-06 -.255723468768D+01 -.800937414169D-07
     .989741625523D+00  .177093750000D+03 -.162128491981D+01 -.796568894578D-08
    -.246438836595D-10  .100000000000D+01  .188500000000D+04  .000000000000D+00
     .340000000000D+01  .000000000000D+00 -.107102096081D-07  .770000000000D+02
     .331206000000D+06  .400000000000D+01
29 16  2 24 22  0  0.0  .654849689454D-03  .682121026330D-12  .000000000000D+00
     .680000000000D+02  .511875000000D+02  .445232831449D-08  .233574774355D+01
     .258348882198D-05  .105558533687D-02  .397488474846D-05  .515360657501D+04
     .338400000000D+06 -.149011611938D-07 -.152979673977D+01 -.931322574615D-08
     .975981442939D+00  .310062500000D+03 -.541644538172D+00 -.821284209784D-08
     .210723063176D-09  .100000000000D+01  .188500000000D+04  .000000000000D+00
     .240000000000D+01  .000000000000D+00 -.102445483208D-07  .680000000000D+02
     .331206000000D+06  .400000000000D+01
30 16  2 24 22  0  0.0  .100096222013D-03  .420641299570D-11  .000000000000D+00
     .280000000000D+02 -.609687500000D+02  .492841957417D-08 -.295563953171D+01
    -.311434268951D-05  .172674516216D-02  .740960240364D-05  .515363259125D+04
     .338400000000D+06 -.558793544769D-07  .267410665420D+01  .745058059692D-08
     .953227858818D+00  .235000000000D+03  .300337307841D+01 -.822319967213D-08
    -.447161483213D-09  .100000000000D+01  .188500000000D+04  .000000000000D+00
     .240000000000D+01  .000000000000D+00  .325962901115D-08  .280000000000D+02
     .331206000000D+06  .400000000000D+01
31 16  2 24 22  0  0.0  .281183049083D-03 -.170530256582D-11  .000000000000D+00
     .930000000000D+02 -.635625000000D+02  .451483091797D-08 -.311816102449D+01
    -.318512320518D-05  .830918480642D-02  .723451375961D-05  .515369812012D+04
     .338400000000D+06 -.670552253723D-07  .263758606152D+01  .875443220139D-07
     .972257710779D+00  .247875000000D+03 -.423406969811D+00 -.793997358891D-08
    -.485734518507D-09  .100000000000D+01  .188500000000D+04  .000000000000D+00
     .340000000000D+01  .000000000000D+00 -.135041773319D-07  .930000000000D+02
     .331206000000D+06  .400000000000D+01
32 16  2 24 22  0  0.0  .761123374104D-05  .454747350886D-11  .000000000000D+00
     .510000000000D+02  .535312500000D+02  .488663211927D-08 -.510835912058D+00
     .255741178989D-05  .264883029740D-02  .510923564434D-05  .517248239899D+04
     .338400000000D+06  .372529029846D-08  .155140535351D+01 -.540167093277D-07
     .959782461809D+00  .277093750000D+03 -.121190293246D+01 -.826320133836D-08
     .427160650099D-09  .100000000000D+01  .188500000000D+04  .000000000000D+00
     .240000000000D+01  .630000000000D+02  .279396772385D-08  .510000000000D+02
     .331206000000D+06  .400000000000D+01
31 16  2 24 21 59 44.0  .281181186438D-03 -.170530256582D-11  .000000000000D+00
     .210000000000D+02 -.635625000000D+02  .451483091797D-08 -.312049488354D+01
    -.318512320518D-05  .830918236170D-02  .723451375961D-05  .515369811440D+04
     .338384000000D+06 -.670552253723D-07  .263758619904D+01  .875443220139D-07
     .972257715168D+00  .247875000000D+03 -.423406795724D+00 -.793997358891D-08
    -.485734518507D-09  .100000000000D+01  .188500000000D+04  .000000000000D+00
     .240000000000D+01  .000000000000D+00 -.135041773319D-07  .210000000000D+02
     .332046000000D+06  .400000000000D+01
26 16  2 24 21 59 44.0 -.267975497991D-03 -.153477230924D-10  .000000000000D+00
     .300000000000D+01  .304375000000D+02  .433732352408D-08  .162898571766D+01
     .185705721378D-05  .882489141077D-03  .117812305689D-04  .515372002983D+04
     .338384000000D+06  .447034835815D-07 -.263816611147D+01  .745058059692D-08
     .960884508720D+00  .150750000000D+03 -.732992002230D-01 -.790997233924D-08
    -.196436753808D-10  .100000000000D+01  .188500000000D+04  .000000000000D+00
     .240000000000D+01  .000000000000D+00  .698491930962D-08  .300000000000D+01
     .334386000000D+06  .400000000000D+01
25 16  2 24 21 59 44.0 -.122934114188D-03 -.682121026330D-11  .000000000000D+00
     .170000000000D+02  .360000000000D+02  .383373111886D-08  .225260113118D+01
     .177882611752D-05  .519833865110D-02  .128392130136D-04  .515355877495D+04
     .338384000000D+06 -.819563865662D-07 -.263082558938D+01 -.800937414169D-07
     .978876034093D+00  .139718750000D+03  .700708378722D+00 -.760138805690D-08
     .289297764699D-10  .100000000000D+01  .188500000000D+04  .000000000000D+00
     .240000000000D+01  .000000000000D+00  .558793544769D-08  .170000000000D+02
     .338256000000D+06  .400000000000D+01
25 16  2 24 23 59 44.0 -.122983008623D-03 -.682121026330D-11  .000000000000D+00
     .180000000000D+02  .405312500000D+02  .382730227965D-08 -.298032098000D+01
     .197626650333D-05  .519791536499D-02  .127851963043D-04  .515355943489D+04
     .345584000000D+06 -.316649675369D-07 -.263088029813D+01 -.119209289551D-06
     .978876303270D+00  .139781250000D+03  .700691524443D+00 -.759781647955D-08
     .435732435719D-10  .100000000000D+01  .188500000000D+04  .000000000000D+00
     .240000000000D+01  .000000000000D+00  .558793544769D-08  .180000000000D+02
     .338406000000D+06  .400000000000D+01
26 16  2 24 23 59 44.0 -.268086325377D-03 -.153477230924D-10  .000000000000D+00
     .500000000000D+01  .266875000000D+02  .434482383650D-08  .267771851409D+01
     .146776437759D-05  .882204854861D-03  .124461948872D-04  .515372229767D+04
     .345584000000D+06 -.279396772385D-07 -.263822326767D+01  .409781932831D-07
     .960884713528D+00  .140531250000D+03 -.718817715815D-01 -.788032824730D-08
     .389301930274D-10  .100000000000D+01  .188500000000D+04  .000000000000D+00
     .240000000000D+01  .000000000000D+00  .698491930962D-08  .500000000000D+01
     .338406000000D+06  .400000000000D+01
31 16  2 24 23 59 44.0  .281169079244D-03 -.170530256582D-11  .000000000000D+00
     .220000000000D+02 -.640000000000D+02  .458983404215D-08 -.207034967773D+01
    -.330992043018D-05  .830949563533D-02  .746548175812D-05  .515369745064D+04
     .345584000000D+06 -.201165676117D-06  .263752830405D+01 -.558793544769D-07
     .972253575110D+00  .245250000000D+03 -.423385429805D+00 -.810498046211D-08
    -.448590114150D-09  .100000000000D+01  .188500000000D+04  .000000000000D+00
     .240000000000D+01  .000000000000D+00 -.135041773319D-07  .220000000000D+02
     .338406000000D+06  .400000000000D+01
 1 16  2 25  0  0  0.0  .126473605633D-04  .102318153949D-11  .000000000000D+00
     .170000000000D+02 -.827812500000D+02  .449340145392D-08 -.129880718744D+01
    -.429525971413D-05  .509380118456D-02  .611506402493D-05  .515365189934D+04
     .345600000000D+06  .135973095894D-06 -.530745931607D+00 -.139698386192D-06
     .964009737686D+00  .264625000000D+03  .461684630972D+00 -.814891086342D-08
    -.447161483213D-09  .100000000000D+01  .188500000000D+04  .000000000000D+00
     .240000000000D+01  .000000000000D+00  .512227416039D-08  .170000000000D+02
     .338406000000D+06  .400000000000D+01
 2 16  2 25  0  0  0.0  .599485822022D-03 -.113686837722D-12  .000000000000D+00
     .640000000000D+02 -.757812500000D+02  .521593155020D-08 -.837789790473D+00
    -.375695526600D-05  .154829327948D-01  .565685331821D-05  .515372491074D+04
     .345600000000D+06  .558793544769D-07 -.574244418236D+00  .331550836563D-06
     .942708484507D+00  .261718750000D+03 -.215918708240D+01 -.868786188432D-08
    -.442161274935D-09  .100000000000D+01  .188500000000D+04  .000000000000D+00
     .240000000000D+01  .000000000000D+00 -.204890966415D-07  .640000000000D+02
     .338406000000D+06  .400000000000D+01
 3 16  2 25  0  0  0.0 -.287084840238D-04 -.454747350886D-11  .000000000000D+00
     .760000000000D+02 -.906250000000D+00  .418195990970D-08  .120532905699D+01
     .521540641785D-07  .262535293587D-03  .118836760521D-04  .515376484871D+04
     .345600000000D+06 -.577419996262D-07  .509989783647D+00  .745058059692D-07
     .959659747852D+00  .150593750000D+03 -.311824965100D+01 -.778639576321D-08
     .200722646618D-09  .100000000000D+01  .188500000000D+04  .000000000000D+00
     .340000000000D+01  .000000000000D+00  .186264514923D-08  .760000000000D+02
     .338406000000D+06  .400000000000D+01
 5 16  2 25  0  0  0.0 -.143090728670D-03  .341060513165D-11  .000000000000D+00
     .880000000000D+02  .784375000000D+01  .454411785218D-08  .162744132967D+01
     .437721610069D-06  .458119076211D-02  .118855386972D-04  .515374404907D+04
     .345600000000D+06 -.428408384323D-07  .499322606334D+00  .372529029846D-08
     .946769798179D+00  .144562500000D+03  .478026173469D+00 -.799604735318D-08
     .120004998690D-09  .100000000000D+01  .188500000000D+04  .000000000000D+00
     .240000000000D+01  .000000000000D+00 -.107102096081D-07  .880000000000D+02
     .338406000000D+06  .400000000000D+01
